ORBCOMM FM33            
1 25983U 99065D   26020.75579420  .00002036  00000+0  67626-3 0  9995
2 25983  45.0292  44.0900 0006113  73.4963 286.6558 14.40653634367430
ORBCOMM FM36            
1 25984U 99065E   26020.72231425  .00002023  00000+0  69768-3 0  9998
2 25984  45.0382 139.4665 0002829 283.4694  76.5840 14.38825575365746
ORBCOMM FM35            
1 25985U 99065F   26020.72402561  .00002033  00000+0  71652-3 0  9996
2 25985  45.0385 146.2741 0002425  59.6584 300.4505 14.37728976366085
ORBCOMM FM34            
1 25986U 99065G   26020.69218141  .00001843  00000+0  65464-3 0  9994
2 25986  45.0381 146.9085 0002621 341.9031  18.1724 14.37662344366196
ORBCOMM FM38            
1 33060U 08031A   26020.33608547  .00002795  00000+0  37126-3 0  9994
2 33060  48.4420 359.5671 0005133 262.5736  97.4597 14.82463621946956
ORBCOMM FM41            
1 33061U 08031B   26020.94820779  .00004380  00000+0  57233-3 0  9998
2 33061  48.4447   5.2012 0004318 250.5940 142.1605 14.82015950946527
ORBCOMM FM29            
1 33062U 08031C   26020.39731631  .00003250  00000+0  43023-3 0  9993
2 33062  48.4392  15.3370 0005986 246.2728 266.9855 14.82167784946350
ORBCOMM FM39            
1 33063U 08031D   26020.75578817  .00003924  00000+0  53316-3 0  9993
2 33063  48.4400  40.3855 0006732 218.0422 142.0018 14.80589854946028
